OBJECT_NAME,OBJECT_ID,EPOCH,MEAN_MOTION,ECCENTRICITY,INCLINATION,RA_OF_ASC_NODE,ARG_OF_PERICENTER,MEAN_ANOMALY,EPHEMERIS_TYPE,CLASSIFICATION_TYPE,NORAD_CAT_ID,ELEMENT_SET_NO,REV_AT_EPOCH,BSTAR,MEAN_MOTION_DOT,MEAN_MOTION_DDOT
IRIDIUM 154,2018-061F,2026-06-14T05:33:26.254368,14.34219414,.00021037,86.3966,58.0428,87.1321,273.0116,0,U,43574,999,41298,.71221062E-4,.219E-5,0
IRIDIUM 163,2018-061G,2026-06-14T05:06:01.987200,14.34216631,.00022623,86.3962,57.9661,83.3927,276.7526,0,U,43575,999,41295,.30114384E-4,.104E-5,0
IRIDIUM 156,2018-061H,2026-06-14T06:09:58.384800,14.34218084,.00020629,86.3961,57.9547,81.1544,278.9885,0,U,43576,999,41295,.70982221E-4,.219E-5,0
IRIDIUM 164,2018-061J,2026-06-14T05:42:34.457184,14.34217949,.00021061,86.3964,58.0030,88.7804,271.3633,0,U,43577,999,41299,.24278031E-4,.88E-6,0
IRIDIUM 159,2018-061K,2026-06-14T04:56:54.475584,14.34217868,.0002281,86.3961,57.9531,83.9822,276.1634,0,U,43578,999,41295,.38000971E-4,.126E-5,0
IRIDIUM 180,2019-002A,2026-06-14T06:36:38.926656,14.34217495,.00021627,86.3968,354.8150,89.2850,270.8593,0,U,43922,999,38857,-.458055E-5,.7E-7,0
IRIDIUM 176,2019-002B,2026-06-14T05:40:20.463744,14.72263541,.00022609,86.6090,354.7754,92.3201,267.8275,0,U,43923,999,39881,.10714621E-3,.7E-5,0
IRIDIUM 168,2019-002C,2026-06-14T06:27:30.907008,14.34218077,.00021703,86.3974,354.8951,89.0456,271.0989,0,U,43924,999,38855,.14061784E-4,.59E-6,0
IRIDIUM 173,2019-002D,2026-06-14T06:09:14.971392,14.34217430,.00022171,86.3968,354.7890,86.9629,273.1820,0,U,43925,999,38853,.8923649E-5,.45E-6,0
IRIDIUM 169,2019-002E,2026-06-14T02:56:01.058208,14.38607740,.00019618,86.4226,26.4749,71.4659,288.6753,0,U,43926,999,38978,.79631617E-4,.263E-5,0
IRIDIUM 172,2019-002F,2026-06-14T06:00:06.887808,14.34217449,.0002263,86.3969,354.7998,89.2236,270.9219,0,U,43927,999,38854,.32890924E-4,.112E-5,0
IRIDIUM 175,2019-002G,2026-06-14T07:05:14.080704,14.43611244,.00021202,86.4510,291.7300,188.8419,171.2745,0,U,43928,999,39856,.74721892E-4,.273E-5,0
IRIDIUM 171,2019-002H,2026-06-13T22:50:50.916480,14.34216431,.00018899,86.3976,355.2304,88.1139,272.0273,0,U,43929,999,38849,-.67338651E-4,-.169E-5,0
IRIDIUM 170,2019-002J,2026-06-14T05:49:14.556576,14.72263995,.00023586,86.6090,354.7752,88.6935,271.4552,0,U,43930,999,39882,.10723865E-3,.701E-5,0
IRIDIUM 167,2019-002K,2026-06-14T05:23:34.854144,14.34217630,.00017464,86.3967,354.8326,89.3353,270.8043,0,U,43931,999,38853,-.2710912E-5,.12E-6,0
IRIDIUM 181,2023-068S,2026-06-13T18:41:14.863200,14.43312920,.00023456,86.4501,58.2155,89.1984,270.9485,0,U,56726,999,16194,.78537503E-4,.285E-5,0
IRIDIUM 177,2023-068T,2026-06-13T22:37:11.441856,14.80224944,.000239,86.1959,330.3328,87.2912,272.8583,0,U,56727,999,16588,.13113933E-3,.1023E-4,0
IRIDIUM 174,2023-068U,2026-06-13T22:59:58.514496,14.72260000,.00025022,86.6098,355.0412,84.4375,275.7127,0,U,56728,999,16554,.11459219E-3,.747E-5,0
IRIDIUM 178,2023-068V,2026-06-14T03:13:34.845312,14.80229194,.00026584,86.6540,26.6361,86.7142,273.4383,0,U,56729,999,16591,.11638416E-3,.91E-5,0
IRIDIUM 179,2023-068W,2026-06-14T03:05:48.611040,14.80232418,.0002449,86.6782,35.6093,88.8685,271.2817,0,U,56730,999,16591,.82600267E-4,.654E-5,0
