IRIDIUM 154             
1 43574U 18061F   26165.23155387  .00000219  00000+0  71221-4 0  9991
2 43574  86.3966  58.0428 0002103  87.1321 273.0116 14.34219414412985
IRIDIUM 163             
1 43575U 18061G   26165.21252300  .00000104  00000+0  30114-4 0  9992
2 43575  86.3962  57.9661 0002262  83.3927 276.7526 14.34216631412955
IRIDIUM 156             
1 43576U 18061H   26165.25692575  .00000219  00000+0  70982-4 0  9993
2 43576  86.3961  57.9547 0002062  81.1544 278.9885 14.34218084412953
IRIDIUM 164             
1 43577U 18061J   26165.23789881  .00000088  00000+0  24278-4 0  9990
2 43577  86.3964  58.0030 0002106  88.7804 271.3633 14.34217949412998
IRIDIUM 159             
1 43578U 18061K   26165.20618606  .00000126  00000+0  38001-4 0  9996
2 43578  86.3961  57.9531 0002281  83.9822 276.1634 14.34217868412951
IRIDIUM 180             
1 43922U 19002A   26165.27545054  .00000007  00000+0 -45805-5 0  9998
2 43922  86.3968 354.8150 0002162  89.2850 270.8593 14.34217495388576
IRIDIUM 176             
1 43923U 19002B   26165.23634796  .00000700  00000+0  10715-3 0  9996
2 43923  86.6090 354.7754 0002260  92.3201 267.8275 14.72263541398815
IRIDIUM 168             
1 43924U 19002C   26165.26910772  .00000059  00000+0  14062-4 0  9998
2 43924  86.3974 354.8951 0002170  89.0456 271.0989 14.34218077388550
IRIDIUM 173             
1 43925U 19002D   26165.25642328  .00000045  00000+0  89236-5 0  9998
2 43925  86.3968 354.7890 0002217  86.9629 273.1820 14.34217430388532
IRIDIUM 169             
1 43926U 19002E   26165.12223447  .00000263  00000+0  79632-4 0  9992
2 43926  86.4226  26.4749 0001961  71.4659 288.6753 14.38607740389789
IRIDIUM 172             
1 43927U 19002F   26165.25007972  .00000112  00000+0  32891-4 0  9999
2 43927  86.3969 354.7998 0002263  89.2236 270.9219 14.34217449388543
IRIDIUM 175             
1 43928U 19002G   26165.29530186  .00000273  00000+0  74722-4 0  9999
2 43928  86.4510 291.7300 0002120 188.8419 171.2745 14.43611244398566
IRIDIUM 171             
1 43929U 19002H   26164.95197820 -.00000169  00000+0 -67339-4 0  9998
2 43929  86.3976 355.2304 0001889  88.1139 272.0273 14.34216431388490
IRIDIUM 170             
1 43930U 19002J   26165.24252959  .00000701  00000+0  10724-3 0  9993
2 43930  86.6090 354.7752 0002358  88.6935 271.4552 14.72263995398824
IRIDIUM 167             
1 43931U 19002K   26165.22470896  .00000012  00000+0 -27109-5 0  9997
2 43931  86.3967 354.8326 0001746  89.3353 270.8043 14.34217630388533
IRIDIUM 181             
1 56726U 23068S   26164.77864425  .00000285  00000+0  78538-4 0  9996
2 56726  86.4501  58.2155 0002345  89.1984 270.9485 14.43312920161946
IRIDIUM 177             
1 56727U 23068T   26164.94249354  .00001023  00000+0  13114-3 0  9993
2 56727  86.1959 330.3328 0002390  87.2912 272.8583 14.80224944165883
IRIDIUM 174             
1 56728U 23068U   26164.95831614  .00000747  00000+0  11459-3 0  9993
2 56728  86.6098 355.0412 0002502  84.4375 275.7127 14.72260000165541
IRIDIUM 178             
1 56729U 23068V   26165.13443108  .00000910  00000+0  11638-3 0  9993
2 56729  86.6540  26.6361 0002658  86.7142 273.4383 14.80229194165915
IRIDIUM 179             
1 56730U 23068W   26165.12903485  .00000654  00000+0  82600-4 0  9996
2 56730  86.6782  35.6093 0002449  88.8685 271.2817 14.80232418165911
